[{"OBJECT_NAME":"STARLINK-3756","OBJECT_ID":"2022-041BA","EPOCH":"2026-03-09T10:30:23.280480","MEAN_MOTION":15.08836789,"ECCENTRICITY":0.00011834,"INCLINATION":53.2166,"RA_OF_ASC_NODE":90.248,"ARG_OF_PERICENTER":91.1181,"MEAN_ANOMALY":268.9947,"EPHEMERIS_TYPE":0,"CLASSIFICATION_TYPE":"U","NORAD_CAT_ID":52309,"ELEMENT_SET_NO":999,"REV_AT_EPOCH":21582,"BSTAR":6.5064709e-5,"MEAN_MOTION_DOT":7.48e-6,"MEAN_MOTION_DDOT":0},{"OBJECT_NAME":"YUNYAO-1 46","OBJECT_ID":"2025-059D","EPOCH":"2026-03-09T22:34:36.342624","MEAN_MOTION":15.10325082,"ECCENTRICITY":0.00132847,"INCLINATION":97.6091,"RA_OF_ASC_NODE":250.9055,"ARG_OF_PERICENTER":123.8801,"MEAN_ANOMALY":236.3694,"EPHEMERIS_TYPE":0,"CLASSIFICATION_TYPE":"U","NORAD_CAT_ID":63347,"ELEMENT_SET_NO":999,"REV_AT_EPOCH":5331,"BSTAR":0.0002771923,"MEAN_MOTION_DOT":4.488e-5,"MEAN_MOTION_DDOT":0}]
